{
  "type": "FeatureCollection",
  "features": [
    {
      "type": "Feature",
      "properties": {
        "norad_id": 33805,
        "name": "COSMOS 2251 DEB",
        "group": "cosmos-2251-debris",
        "lat": -20.757531552945085,
        "lon": 131.459480360892,
        "alt_km": 688.9724157025548,
        "timestamp": "2025-12-15T22:44:29.322839+00:00",
        "meta_object_name": "COSMOS 2251 DEB",
        "meta_object_id": "1993-036AW",
        "meta_epoch": "2025-12-15T07:00:10.713888",
        "meta_mean_motion": 14.57861431,
        "meta_eccentricity": 0.00601204,
        "meta_inclination": 74.0309,
        "meta_ra_of_asc_node": 306.4758,
        "meta_arg_of_pericenter": 134.7072,
        "meta_mean_anomaly": 225.9013,
        "meta_ephemeris_type": 0,
        "meta_classification_type": "U",
        "meta_norad_cat_id": 33805,
        "meta_element_set_no": 999,
        "meta_rev_at_epoch": 89264,
        "meta_bstar": 0.00025394174,
        "meta_mean_motion_dot": 1.162e-05,
        "meta_mean_motion_ddot": 0,
        "tle_line1": "1 33805U 93036AW  25349.29179067  .00001162  00000+0  25394-3 0  9999",
        "tle_line2": "2 33805  74.0309 306.4758 0060120 134.7072 225.9013 14.57861431892641"
      },
      "geometry": {
        "type": "Point",
        "coordinates": [
          131.459480360892,
          -20.757531552945085
        ]
      }
    },
    {
      "type": "Feature",
      "properties": {
        "norad_id": 33811,
        "name": "COSMOS 2251 DEB",
        "group": "cosmos-2251-debris",
        "lat": -69.0451326941651,
        "lon": 165.23023938084208,
        "alt_km": 567.8397464651844,
        "timestamp": "2025-12-15T22:44:29.322851+00:00",
        "meta_object_name": "COSMOS 2251 DEB",
        "meta_object_id": "1993-036BC",
        "meta_epoch": "2025-12-15T07:55:48.842688",
        "meta_mean_motion": 15.05355396,
        "meta_eccentricity": 0.0030836,
        "meta_inclination": 73.8376,
        "meta_ra_of_asc_node": 297.2832,
        "meta_arg_of_pericenter": 17.6431,
        "meta_mean_anomaly": 136.0959,
        "meta_ephemeris_type": 0,
        "meta_classification_type": "U",
        "meta_norad_cat_id": 33811,
        "meta_element_set_no": 999,
        "meta_rev_at_epoch": 90057,
        "meta_bstar": 0.00070621257,
        "meta_mean_motion_dot": 0.00010197,
        "meta_mean_motion_ddot": 0,
        "tle_line1": "1 33811U 93036BC  25349.33042642  .00010197  00000+0  70621-3 0  9990",
        "tle_line2": "2 33811  73.8376 297.2832 0030836  17.6431 136.0959 15.05355396900573"
      },
      "geometry": {
        "type": "Point",
        "coordinates": [
          165.23023938084208,
          -69.0451326941651
        ]
      }
    },
    {
      "type": "Feature",
      "properties": {
        "norad_id": 33815,
        "name": "COSMOS 2251 DEB",
        "group": "cosmos-2251-debris",
        "lat": 58.64057537445472,
        "lon": -38.34604197919374,
        "alt_km": 503.9418514084946,
        "timestamp": "2025-12-15T22:44:29.322862+00:00",
        "meta_object_name": "COSMOS 2251 DEB",
        "meta_object_id": "1993-036BG",
        "meta_epoch": "2025-12-14T23:10:32.909088",
        "meta_mean_motion": 15.18699884,
        "meta_eccentricity": 0.0001527,
        "meta_inclination": 73.9514,
        "meta_ra_of_asc_node": 171.9048,
        "meta_arg_of_pericenter": 248.3603,
        "meta_mean_anomaly": 262.5563,
        "meta_ephemeris_type": 0,
        "meta_classification_type": "U",
        "meta_norad_cat_id": 33815,
        "meta_element_set_no": 999,
        "meta_rev_at_epoch": 88404,
        "meta_bstar": 0.003941796,
        "meta_mean_motion_dot": 0.00082715,
        "meta_mean_motion_ddot": 0,
        "tle_line1": "1 33815U 93036BG  25348.96565867  .00082715  00000+0  39418-2 0  9994",
        "tle_line2": "2 33815  73.9514 171.9048 0001527 248.3603 262.5563 15.18699884884044"
      },
      "geometry": {
        "type": "Point",
        "coordinates": [
          -38.34604197919374,
          58.64057537445472
        ]
      }
    },
    {
      "type": "Feature",
      "properties": {
        "norad_id": 33816,
        "name": "COSMOS 2251 DEB",
        "group": "cosmos-2251-debris",
        "lat": -23.167124562883444,
        "lon": -72.93911589628675,
        "alt_km": 963.544391353651,
        "timestamp": "2025-12-15T22:44:29.322873+00:00",
        "meta_object_name": "COSMOS 2251 DEB",
        "meta_object_id": "1993-036BH",
        "meta_epoch": "2025-12-15T07:53:05.819712",
        "meta_mean_motion": 13.81786482,
        "meta_eccentricity": 0.02645618,
        "meta_inclination": 73.895,
        "meta_ra_of_asc_node": 101.0081,
        "meta_arg_of_pericenter": 113.4297,
        "meta_mean_anomaly": 249.4881,
        "meta_ephemeris_type": 0,
        "meta_classification_type": "U",
        "meta_norad_cat_id": 33816,
        "meta_element_set_no": 999,
        "meta_rev_at_epoch": 84709,
        "meta_bstar": 0.00042399978,
        "meta_mean_motion_dot": 5.71e-06,
        "meta_mean_motion_ddot": 0,
        "tle_line1": "1 33816U 93036BH  25349.32853958  .00000571  00000+0  42400-3 0  9993",
        "tle_line2": "2 33816  73.8950 101.0081 0264561 113.4297 249.4881 13.81786482847099"
      },
      "geometry": {
        "type": "Point",
        "coordinates": [
          -72.93911589628675,
          -23.167124562883444
        ]
      }
    },
    {
      "type": "Feature",
      "properties": {
        "norad_id": 33818,
        "name": "COSMOS 2251 DEB",
        "group": "cosmos-2251-debris",
        "lat": -58.71968748537639,
        "lon": 131.57955752087543,
        "alt_km": 550.3806453249399,
        "timestamp": "2025-12-15T22:44:29.322883+00:00",
        "meta_object_name": "COSMOS 2251 DEB",
        "meta_object_id": "1993-036BK",
        "meta_epoch": "2025-12-15T06:20:04.729632",
        "meta_mean_motion": 15.12714105,
        "meta_eccentricity": 0.00264125,
        "meta_inclination": 74.0761,
        "meta_ra_of_asc_node": 161.0228,
        "meta_arg_of_pericenter": 148.8328,
        "meta_mean_anomaly": 27.0877,
        "meta_ephemeris_type": 0,
        "meta_classification_type": "U",
        "meta_norad_cat_id": 33818,
        "meta_element_set_no": 999,
        "meta_rev_at_epoch": 89900,
        "meta_bstar": 0.0016710494,
        "meta_mean_motion_dot": 0.00029602,
        "meta_mean_motion_ddot": 0,
        "tle_line1": "1 33818U 93036BK  25349.26394363  .00029602  00000+0  16710-2 0  9998",
        "tle_line2": "2 33818  74.0761 161.0228 0026412 148.8328  27.0877 15.12714105899003"
      },
      "geometry": {
        "type": "Point",
        "coordinates": [
          131.57955752087543,
          -58.71968748537639
        ]
      }
    },
    {
      "type": "Feature",
      "properties": {
        "norad_id": 33819,
        "name": "COSMOS 2251 DEB",
        "group": "cosmos-2251-debris",
        "lat": -32.70850988102161,
        "lon": 34.53592371875374,
        "alt_km": 844.998444486926,
        "timestamp": "2025-12-15T22:44:29.322894+00:00",
        "meta_object_name": "COSMOS 2251 DEB",
        "meta_object_id": "1993-036BL",
        "meta_epoch": "2025-12-15T02:24:38.509344",
        "meta_mean_motion": 14.32232491,
        "meta_eccentricity": 0.00891404,
        "meta_inclination": 74.1786,
        "meta_ra_of_asc_node": 205.5756,
        "meta_arg_of_pericenter": 66.1733,
        "meta_mean_anomaly": 101.3829,
        "meta_ephemeris_type": 0,
        "meta_classification_type": "U",
        "meta_norad_cat_id": 33819,
        "meta_element_set_no": 999,
        "meta_rev_at_epoch": 87529,
        "meta_bstar": 0.00056275074,
        "meta_mean_motion_dot": 1.561e-05,
        "meta_mean_motion_ddot": 0,
        "tle_line1": "1 33819U 93036BL  25349.10044571  .00001561  00000+0  56275-3 0  9990",
        "tle_line2": "2 33819  74.1786 205.5756 0089140  66.1733 101.3829 14.32232491875293"
      },
      "geometry": {
        "type": "Point",
        "coordinates": [
          34.53592371875374,
          -32.70850988102161
        ]
      }
    },
    {
      "type": "Feature",
      "properties": {
        "norad_id": 33821,
        "name": "COSMOS 2251 DEB",
        "group": "cosmos-2251-debris",
        "lat": -62.23348969013356,
        "lon": -10.990027836673928,
        "alt_km": 488.82447133883124,
        "timestamp": "2025-12-15T22:44:29.322904+00:00",
        "meta_object_name": "COSMOS 2251 DEB",
        "meta_object_id": "1993-036BN",
        "meta_epoch": "2025-12-14T20:28:55.117344",
        "meta_mean_motion": 15.25458881,
        "meta_eccentricity": 0.00513762,
        "meta_inclination": 74.0288,
        "meta_ra_of_asc_node": 138.3678,
        "meta_arg_of_pericenter": 171.1464,
        "meta_mean_anomaly": 189.0656,
        "meta_ephemeris_type": 0,
        "meta_classification_type": "U",
        "meta_norad_cat_id": 33821,
        "meta_element_set_no": 999,
        "meta_rev_at_epoch": 75033,
        "meta_bstar": 0.00087444969,
        "meta_mean_motion_dot": 0.00023008,
        "meta_mean_motion_ddot": 0,
        "tle_line1": "1 33821U 93036BN  25348.85341571  .00023008  00000+0  87445-3 0  9997",
        "tle_line2": "2 33821  74.0288 138.3678 0051376 171.1464 189.0656 15.25458881750330"
      },
      "geometry": {
        "type": "Point",
        "coordinates": [
          -10.990027836673928,
          -62.23348969013356
        ]
      }
    }
  ]
}